{"type": "FeatureCollection", "features": [ {"type": "Feature", "properties": {"norad_id": 57401, "name": "TIANMU-1 09", "group": "weather", "lat": -80.0624386401695, "lon": 163.57094971516992, "alt_km": 493.77781054847856, "timestamp": "2025-12-07T03:52:32.112797+00:00", "meta": {"OBJECT_NAME": "TIANMU-1 09", "OBJECT_ID": "2023-101C", "EPOCH": "2025-12-06T14:09:12.502656", "MEAN_MOTION": 15.27948865, "ECCENTRICITY": 0.00068078, "INCLINATION": 97.2826, "RA_OF_ASC_NODE": 29.8917, "ARG_OF_PERICENTER": 100.485, "MEAN_ANOMALY": 259.7158, "EPHEMERIS_TYPE": 0, "CLASSIFICATION_TYPE": "U", "NORAD_CAT_ID": 57401, "ELEMENT_SET_NO": 999, "REV_AT_EPOCH": 13221, "BSTAR": 0.00044207403, "MEAN_MOTION_DOT": 0.00011999, "MEAN_MOTION_DDOT": 0}, "tle": {"line1": "1 57401U 23101C   25340.58972804  .00011999  00000+0  44207-3 0  9999", "line2": "2 57401  97.2826  29.8917 0006807 100.4850 259.7158 15.27948865132219"}}, "geometry": {"type": "Point", "coordinates": [163.57094971516992, -80.0624386401695]}}, {"type": "Feature", "properties": {"norad_id": 57402, "name": "TIANMU-1 10", "group": "weather", "lat": 73.55746914034785, "lon": 5.585010896442484, "alt_km": 469.554915521423, "timestamp": "2025-12-07T03:52:32.112813+00:00", "meta": {"OBJECT_NAME": "TIANMU-1 10", "OBJECT_ID": "2023-101D", "EPOCH": "2025-12-06T14:58:25.794624", "MEAN_MOTION": 15.27940395, "ECCENTRICITY": 0.0008541, "INCLINATION": 97.2906, "RA_OF_ASC_NODE": 30.7685, "ARG_OF_PERICENTER": 101.1561, "MEAN_ANOMALY": 259.064, "EPHEMERIS_TYPE": 0, "CLASSIFICATION_TYPE": "U", "NORAD_CAT_ID": 57402, "ELEMENT_SET_NO": 999, "REV_AT_EPOCH": 13221, "BSTAR": 0.00046837649, "MEAN_MOTION_DOT": 0.0001272, "MEAN_MOTION_DDOT": 0}, "tle": {"line1": "1 57402U 23101D   25340.62390966  .00012720  00000+0  46838-3 0  9993", "line2": "2 57402  97.2906  30.7685 0008541 101.1561 259.0640 15.27940395132215"}}, "geometry": {"type": "Point", "coordinates": [5.585010896442484, 73.55746914034785]}}, {"type": "Feature", "properties": {"norad_id": 57490, "name": "FENGYUN 3F", "group": "weather", "lat": -17.470588935976362, "lon": 52.309968781863276, "alt_km": 830.7369020453107, "timestamp": "2025-12-07T03:52:32.112830+00:00", "meta": {"OBJECT_NAME": "FENGYUN 3F", "OBJECT_ID": "2023-111A", "EPOCH": "2025-12-06T14:25:43.959072", "MEAN_MOTION": 14.19891176, "ECCENTRICITY": 6.622e-05, "INCLINATION": 98.7093, "RA_OF_ASC_NODE": 48.9935, "ARG_OF_PERICENTER": 90.0396, "MEAN_ANOMALY": 270.0856, "EPHEMERIS_TYPE": 0, "CLASSIFICATION_TYPE": "U", "NORAD_CAT_ID": 57490, "ELEMENT_SET_NO": 999, "REV_AT_EPOCH": 12153, "BSTAR": 0.00012052982, "MEAN_MOTION_DOT": 2.12e-06, "MEAN_MOTION_DDOT": 0}, "tle": {"line1": "1 57490U 23111A   25340.60120323  .00000212  00000+0  12053-3 0  9992", "line2": "2 57490  98.7093  48.9935 0000662  90.0396 270.0856 14.19891176121539"}}, "geometry": {"type": "Point", "coordinates": [52.309968781863276, -17.470588935976362]}}, {"type": "Feature", "properties": {"norad_id": 58584, "name": "ARKTIKA-M 2", "group": "weather", "lat": 58.95371963218614, "lon": -61.569658619022576, "alt_km": 33998.03979549949, "timestamp": "2025-12-07T03:52:32.112849+00:00", "meta": {"OBJECT_NAME": "ARKTIKA-M 2", "OBJECT_ID": "2023-198A", "EPOCH": "2025-12-03T08:34:19.284960", "MEAN_MOTION": 2.00605176, "ECCENTRICITY": 0.68642509, "INCLINATION": 63.2223, "RA_OF_ASC_NODE": 175.9121, "ARG_OF_PERICENTER": 268.1397, "MEAN_ANOMALY": 18.842, "EPHEMERIS_TYPE": 0, "CLASSIFICATION_TYPE": "U", "NORAD_CAT_ID": 58584, "ELEMENT_SET_NO": 999, "REV_AT_EPOCH": 1439, "BSTAR": 0, "MEAN_MOTION_DOT": 2.24e-06, "MEAN_MOTION_DDOT": 0}, "tle": {"line1": "1 58584U 23198A   25337.35716765  .00000224  00000+0  00000+0 0  9999", "line2": "2 58584  63.2223 175.9121 6864250 268.1397  18.8420  2.00605176 14390"}}, "geometry": {"type": "Point", "coordinates": [-61.569658619022576, 58.95371963218614]}}, {"type": "Feature", "properties": {"norad_id": 58645, "name": "TIANMU-1 11", "group": "weather", "lat": -35.92515669451058, "lon": 6.257164044795925, "alt_km": 492.91366389840823, "timestamp": "2025-12-07T03:52:32.112869+00:00", "meta": {"OBJECT_NAME": "TIANMU-1 11", "OBJECT_ID": "2023-205A", "EPOCH": "2025-12-06T13:51:23.012352", "MEAN_MOTION": 15.24488081, "ECCENTRICITY": 0.0008492, "INCLINATION": 97.3603, "RA_OF_ASC_NODE": 0.3093, "ARG_OF_PERICENTER": 335.067, "MEAN_ANOMALY": 25.0156, "EPHEMERIS_TYPE": 0, "CLASSIFICATION_TYPE": "U", "NORAD_CAT_ID": 58645, "ELEMENT_SET_NO": 999, "REV_AT_EPOCH": 10815, "BSTAR": 0.00039896571, "MEAN_MOTION_DOT": 9.747e-05, "MEAN_MOTION_DDOT": 0}, "tle": {"line1": "1 58645U 23205A   25340.57734968  .00009747  00000+0  39897-3 0  9998", "line2": "2 58645  97.3603   0.3093 0008492 335.0670  25.0156 15.24488081108155"}}, "geometry": {"type": "Point", "coordinates": [6.257164044795925, -35.92515669451058]}}, {"type": "Feature", "properties": {"norad_id": 58646, "name": "TIANMU-1 12", "group": "weather", "lat": 1.5694839123894808, "lon": -179.10658772255562, "alt_km": 498.72700483196513, "timestamp": "2025-12-07T03:52:32.112890+00:00", "meta": {"OBJECT_NAME": "TIANMU-1 12", "OBJECT_ID": "2023-205B", "EPOCH": "2025-12-06T14:29:32.462880", "MEAN_MOTION": 15.24403421, "ECCENTRICITY": 0.00063209, "INCLINATION": 97.3591, "RA_OF_ASC_NODE": 0.1429, "ARG_OF_PERICENTER": 319.6277, "MEAN_ANOMALY": 40.449, "EPHEMERIS_TYPE": 0, "CLASSIFICATION_TYPE": "U", "NORAD_CAT_ID": 58646, "ELEMENT_SET_NO": 999, "REV_AT_EPOCH": 10814, "BSTAR": 0.00043763592, "MEAN_MOTION_DOT": 0.00010669, "MEAN_MOTION_DDOT": 0}, "tle": {"line1": "1 58646U 23205B   25340.60384795  .00010669  00000+0  43764-3 0  9995", "line2": "2 58646  97.3591   0.1429 0006320 319.6277  40.4490 15.24403421108148"}}, "geometry": {"type": "Point", "coordinates": [-179.10658772255562, 1.5694839123894808]}}, {"type": "Feature", "properties": {"norad_id": 58647, "name": "TIANMU-1 13", "group": "weather", "lat": -6.428990985304384, "lon": 1.7237528894994967, "alt_km": 494.3164113559278, "timestamp": "2025-12-07T03:52:32.112907+00:00", "meta": {"OBJECT_NAME": "TIANMU-1 13", "OBJECT_ID": "2023-205C", "EPOCH": "2025-12-06T13:43:31.703808", "MEAN_MOTION": 15.24409547, "ECCENTRICITY": 0.0006169, "INCLINATION": 97.3618, "RA_OF_ASC_NODE": 0.3098, "ARG_OF_PERICENTER": 295.413, "MEAN_ANOMALY": 64.6469, "EPHEMERIS_TYPE": 0, "CLASSIFICATION_TYPE": "U", "NORAD_CAT_ID": 58647, "ELEMENT_SET_NO": 999, "REV_AT_EPOCH": 10813, "BSTAR": 0.00041210331, "MEAN_MOTION_DOT": 0.00010043, "MEAN_MOTION_DDOT": 0}, "tle": {"line1": "1 58647U 23205C   25340.57189472  .00010043  00000+0  41210-3 0  9997", "line2": "2 58647  97.3618   0.3098 0006169 295.4130  64.6469 15.24409547108131"}}, "geometry": {"type": "Point", "coordinates": [1.7237528894994967, -6.428990985304384]}}, {"type": "Feature", "properties": {"norad_id": 58648, "name": "TIANMU-1 14", "group": "weather", "lat": 81.10049610115885, "lon": -55.33687272863703, "alt_km": 489.23466807148725, "timestamp": "2025-12-07T03:52:32.112923+00:00", "meta": {"OBJECT_NAME": "TIANMU-1 14", "OBJECT_ID": "2023-205D", "EPOCH": "2025-12-06T14:54:03.100608", "MEAN_MOTION": 15.24394393, "ECCENTRICITY": 0.00070682, "INCLINATION": 97.3551, "RA_OF_ASC_NODE": 359.7124, "ARG_OF_PERICENTER": 299.7415, "MEAN_ANOMALY": 60.3119, "EPHEMERIS_TYPE": 0, "CLASSIFICATION_TYPE": "U", "NORAD_CAT_ID": 58648, "ELEMENT_SET_NO": 999, "REV_AT_EPOCH": 10814, "BSTAR": 0.00042376244, "MEAN_MOTION_DOT": 0.00010326, "MEAN_MOTION_DDOT": 0}, "tle": {"line1": "1 58648U 23205D   25340.62086922  .00010326  00000+0  42376-3 0  9998", "line2": "2 58648  97.3551 359.7124 0007068 299.7415  60.3119 15.24394393108149"}}, "geometry": {"type": "Point", "coordinates": [-55.33687272863703, 81.10049610115885]}}, {"type": "Feature", "properties": {"norad_id": 58660, "name": "TIANMU-1 19", "group": "weather", "lat": -81.85526470890721, "lon": 158.14278284209763, "alt_km": 487.28123556289756, "timestamp": "2025-12-07T03:52:32.112940+00:00", "meta": {"OBJECT_NAME": "TIANMU-1 19", "OBJECT_ID": "2023-208A", "EPOCH": "2025-12-06T14:06:22.800096", "MEAN_MOTION": 15.27681711, "ECCENTRICITY": 0.00040631, "INCLINATION": 97.4398, "RA_OF_ASC_NODE": 91.6383, "ARG_OF_PERICENTER": 280.8101, "MEAN_ANOMALY": 79.2681, "EPHEMERIS_TYPE": 0, "CLASSIFICATION_TYPE": "U", "NORAD_CAT_ID": 58660, "ELEMENT_SET_NO": 999, "REV_AT_EPOCH": 10788, "BSTAR": 0.00058496329, "MEAN_MOTION_DOT": 0.00015771, "MEAN_MOTION_DDOT": 0}, "tle": {"line1": "1 58660U 23208A   25340.58776389  .00015771  00000+0  58496-3 0  9992", "line2": "2 58660  97.4398  91.6383 0004063 280.8101  79.2681 15.27681711107886"}}, "geometry": {"type": "Point", "coordinates": [158.14278284209763, -81.85526470890721]}}, {"type": "Feature", "properties": {"norad_id": 58661, "name": "TIANMU-1 20", "group": "weather", "lat": -36.02983811222296, "lon": 98.10222392759027, "alt_km": 481.8983626878626, "timestamp": "2025-12-07T03:52:32.112956+00:00", "meta": {"OBJECT_NAME": "TIANMU-1 20", "OBJECT_ID": "2023-208B", "EPOCH": "2025-12-06T13:53:50.026272", "MEAN_MOTION": 15.28872623, "ECCENTRICITY": 0.00063623, "INCLINATION": 97.4335, "RA_OF_ASC_NODE": 92.0713, "ARG_OF_PERICENTER": 291.9055, "MEAN_ANOMALY": 68.1508, "EPHEMERIS_TYPE": 0, "CLASSIFICATION_TYPE": "U", "NORAD_CAT_ID": 58661, "ELEMENT_SET_NO": 999, "REV_AT_EPOCH": 10795, "BSTAR": 0.00053808147, "MEAN_MOTION_DOT": 0.00015042, "MEAN_MOTION_DDOT": 0}, "tle": {"line1": "1 58661U 23208B   25340.57905123  .00015042  00000+0  53808-3 0  9995", "line2": "2 58661  97.4335  92.0713 0006362 291.9055  68.1508 15.28872623107953"}}, "geometry": {"type": "Point", "coordinates": [98.10222392759027, -36.02983811222296]}}]}